NORAD_CAT_ID,OBJECT_NAME,OBJECT_TYPE,EPOCH,MEAN_MOTION,ECCENTRICITY,INCLINATION,RA_OF_ASC_NODE,ARG_OF_PERICENTER,MEAN_ANOMALY,BSTAR,MEAN_MOTION_DOT,MEAN_MOTION_DDOT,TLE_LINE0,TLE_LINE1,TLE_LINE2,SEMIMAJOR_AXIS,PERIOD,APOGEE,PERIGEE,DECAYED
52282.0,STARLINK-3783,PAYLOAD,2023-10-04 18:17:14,15.08844895,0.0001364,53.2146,120.6943,82.091,278.0237,0.0003477,5.251e-05,0.0,0 STARLINK-3783,1 52282U 22041X   23277.76196870  .00005251  00000-0  34770-3 0  9990,2 52282  53.2146 120.6943 0001364  82.0910 278.0237 15.08844895 81821,6917.865,95.437,540.674,538.787,0.0
52282.0,STARLINK-3783,PAYLOAD,2023-10-04 19:52:37,15.08846432,0.0001235,53.2142,120.3971,86.6955,273.4178,0.00032012,4.811e-05,0.0,0 STARLINK-3783,1 52282U 22041X   23277.82820751  .00004811  00000-0  32012-3 0  9997,2 52282  53.2142 120.3971 0001235  86.6955 273.4178 15.08846432 80619,6917.861,95.437,540.58,538.871,0.0
52282.0,STARLINK-3783,PAYLOAD,2023-10-05 07:00:19,15.08843892,0.0001432,53.2163,118.314,88.9136,271.202,0.00018774,2.702e-05,0.0,0 STARLINK-3783,1 52282U 22041X   23278.29188815  .00002702  00000-0  18774-3 0  9993,2 52282  53.2163 118.3140 0001432  88.9136 271.2020 15.08843892 80688,6917.868,95.437,540.724,538.743,0.0
52282.0,STARLINK-3783,PAYLOAD,2023-10-05 19:43:24,15.08843297,0.0001449,53.2167,115.9349,95.1264,264.9893,0.00017486,2.496e-05,0.0,0 STARLINK-3783,1 52282U 22041X   23278.82180874  .00002496  00000-0  17486-3 0  9998,2 52282  53.2167 115.9349 0001449  95.1264 264.9893 15.08843297 81986,6917.87,95.437,540.738,538.733,0.0
52282.0,STARLINK-3783,PAYLOAD,2023-10-06 06:51:06,15.08837509,0.0001522,53.2157,113.8543,79.4898,280.6266,8.8364e-05,1.119e-05,0.0,0 STARLINK-3783,1 52282U 22041X   23279.28549229  .00001119  00000-0  88364-4 0  9997,2 52282  53.2157 113.8543 0001522  79.4898 280.6266 15.08837509 82055,6917.888,95.438,540.806,538.7,0.0
52282.0,STARLINK-3783,PAYLOAD,2023-10-06 13:12:39,15.08838102,0.000145,53.2158,112.6648,85.2716,274.8441,0.00013612,1.879e-05,0.0,0 STARLINK-3783,1 52282U 22041X   23279.55045334  .00001879  00000-0  13612-3 0  9991,2 52282  53.2158 112.6648 0001450  85.2716 274.8441 15.08838102 80871,6917.886,95.438,540.754,538.748,0.0
52282.0,STARLINK-3783,PAYLOAD,2023-10-06 19:34:11,15.08840016,0.0001465,53.2161,111.4754,84.2318,275.8841,0.00037127,5.626e-05,0.0,0 STARLINK-3783,1 52282U 22041X   23279.81541463  .00005626  00000-0  37127-3 0  9995,2 52282  53.2161 111.4754 0001465  84.2318 275.8841 15.08840016 80910,6917.88,95.438,540.759,538.732,0.0
52282.0,STARLINK-3783,PAYLOAD,2023-10-07 13:03:26,15.0884771,0.0001461,53.2164,108.2047,83.2572,276.8587,0.00048662,7.467e-05,0.0,0 STARLINK-3783,1 52282U 22041X   23280.54405383  .00007467  00000-0  48662-3 0  9998,2 52282  53.2164 108.2047 0001461  83.2572 276.8587 15.08847710 81028,6917.857,95.437,540.733,538.711,0.0
52282.0,STARLINK-3783,PAYLOAD,2023-10-07 19:24:58,15.08854487,0.0001426,53.2166,107.0153,82.449,277.6664,0.00061736,9.555e-05,0.0,0 STARLINK-3783,1 52282U 22041X   23280.80901139  .00009555  00000-0  61736-3 0  9994,2 52282  53.2166 107.0153 0001426  82.4490 277.6664 15.08854487 82289,6917.836,95.437,540.688,538.715,0.0
52282.0,STARLINK-3783,PAYLOAD,2023-10-08 04:57:17,15.08847489,0.0001407,53.2162,105.2313,80.6582,279.4569,0.0002382,3.506e-05,0.0,0 STARLINK-3783,1 52282U 22041X   23281.20645112  .00003506  00000-0  23820-3 0  9997,2 52282  53.2162 105.2313 0001407  80.6582 279.4569 15.08847489 82349,6917.857,95.437,540.696,538.749,0.0
52282.0,STARLINK-3783,PAYLOAD,2023-10-08 12:54:13,15.08847588,0.0001549,53.2165,103.7443,79.0839,281.0327,0.00024453,3.607e-05,0.0,0 STARLINK-3783,1 52282U 22041X   23281.53765154  .00003607  00000-0  24453-3 0  9997,2 52282  53.2165 103.7443 0001549  79.0839 281.0327 15.08847588 81174,6917.857,95.437,540.794,538.651,0.0
52282.0,STARLINK-3783,PAYLOAD,2023-10-08 20:51:08,15.08853264,0.0001403,53.217,102.2581,88.0761,272.0392,0.00049955,7.674e-05,0.0,0 STARLINK-3783,1 52282U 22041X   23281.86884786  .00007674  00000-0  49955-3 0  9998,2 52282  53.2170 102.2581 0001403  88.0761 272.0392 15.08853264 81226,6917.84,95.437,540.675,538.734,0.0
52282.0,STARLINK-3783,PAYLOAD,2023-10-09 04:48:04,15.08845265,0.0001405,53.2167,100.7716,84.4472,275.668,0.00028222,4.207e-05,0.0,0 STARLINK-3783,1 52282U 22041X   23282.20004894  .00004207  00000-0  28222-3 0  9994,2 52282  53.2167 100.7716 0001405  84.4472 275.6680 15.08845265 82497,6917.864,95.437,540.701,538.757,0.0
52282.0,STARLINK-3783,PAYLOAD,2023-10-09 11:09:36,15.08844069,0.0001697,53.217,99.5823,90.34,269.7787,0.00015501,2.18e-05,0.0,0 STARLINK-3783,1 52282U 22041X   23282.46501002  .00002180  00000-0  15501-3 0  9999,2 52282  53.2170  99.5823 0001697  90.3400 269.7787 15.08844069 81318,6917.868,95.437,540.907,538.559,0.0
52282.0,STARLINK-3783,PAYLOAD,2023-10-09 17:31:09,15.08837296,0.0001463,53.2171,98.3928,87.4288,272.6871,-6.3301e-05,-1.295e-05,0.0,0 STARLINK-3783,1 52282U 22041X   23282.72997245 -.00001295  00000-0 -63301-4 0  9996,2 52282  53.2171  98.3928 0001463  87.4288 272.6871 15.08837296 82574,6917.889,95.438,540.766,538.742,0.0
52282.0,STARLINK-3783,PAYLOAD,2023-10-09 22:17:18,15.08845017,0.000136,53.2167,97.4996,76.1323,283.9821,0.00012655,1.727e-05,0.0,0 STARLINK-3783,1 52282U 22041X   23282.92868972  .00001727  00000-0  12655-3 0  9995,2 52282  53.2167  97.4996 0001360  76.1323 283.9821 15.08845017 82609,6917.865,95.437,540.671,538.789,0.0
52282.0,STARLINK-3783,PAYLOAD,2023-10-10 20:32:42,15.08852254,0.0001533,53.2164,93.3364,72.3974,287.7186,0.00052608,8.097e-05,0.0,0 STARLINK-3783,1 52282U 22041X   23283.85604913  .00008097  00000-0  52608-3 0  9990,2 52282  53.2164  93.3364 0001533  72.3974 287.7186 15.08852254 81529,6917.843,95.437,540.768,538.647,0.0
52282.0,STARLINK-3783,PAYLOAD,2023-10-11 10:51:11,15.088352,0.0001603,53.2162,90.6608,82.5789,277.5385,-3.651e-05,-8.69e-06,0.0,0 STARLINK-3783,1 52282U 22041X   23284.45221376 -.00000869  00000-0 -36510-4 0  9991,2 52282  53.2162  90.6608 0001603  82.5789 277.5385 15.08835200 82838,6917.895,95.438,540.869,538.651,0.0
52282.0,STARLINK-3783,PAYLOAD,2023-10-12 10:41:58,15.08847346,0.0001559,53.2155,86.2,83.5155,276.6015,0.00053406,8.223e-05,0.0,0 STARLINK-3783,1 52282U 22041X   23285.44581508  .00008223  00000-0  53406-3 0  9999,2 52282  53.2155  86.2000 0001559  83.5155 276.6015 15.08847346 81760,6917.858,95.437,540.801,538.644,0.0
52282.0,STARLINK-3783,PAYLOAD,2023-10-12 17:03:30,15.08854693,0.0001556,53.2156,85.0104,83.7814,276.3355,0.00075396,0.00011736,0.0,0 STARLINK-3783,1 52282U 22041X   23285.71077326  .00011736  00000-0  75396-3 0  9992,2 52282  53.2156  85.0104 0001556  83.7814 276.3355 15.08854693 83022,6917.835,95.437,540.777,538.624,0.0
52282.0,STARLINK-3783,PAYLOAD,2023-10-13 10:32:45,15.08846429,0.000165,53.2156,81.7393,72.7421,287.3752,0.00035629,5.388e-05,0.0,0 STARLINK-3783,1 52282U 22041X   23286.43941492  .00005388  00000-0  35629-3 0  9997,2 52282  53.2156  81.7393 0001650  72.7421 287.3752 15.08846429 83135,6917.861,95.437,540.867,538.584,0.0
52282.0,STARLINK-3783,PAYLOAD,2023-10-13 13:43:31,15.08849165,0.0001633,53.2163,81.1442,61.6606,298.4551,0.00044895,6.866e-05,0.0,0 STARLINK-3783,1 52282U 22041X   23286.57189581  .00006866  00000-0  44895-3 0  9992,2 52282  53.2163  81.1442 0001633  61.6606 298.4551 15.08849165 81931,6917.852,95.437,540.847,538.588,0.0
52282.0,STARLINK-3783,PAYLOAD,2023-10-13 16:54:18,15.08844359,0.0001718,53.2167,80.5498,79.297,280.8215,0.00034174,5.156e-05,0.0,0 STARLINK-3783,1 52282U 22041X   23286.70437545  .00005156  00000-0  34174-3 0  9993,2 52282  53.2167  80.5498 0001718  79.2970 280.8215 15.08844359 81956,6917.867,95.437,540.921,538.544,0.0
52282.0,STARLINK-3783,PAYLOAD,2023-10-14 10:23:32,15.08844994,0.000167,53.2172,77.2776,77.2039,282.914,0.00027075,4.024e-05,0.0,0 STARLINK-3783,1 52282U 22041X   23287.43301503  .00004024  00000-0  27075-3 0  9993,2 52282  53.2172  77.2776 0001670  77.2039 282.9140 15.08844994 83288,6917.865,95.437,540.885,538.575,0.0
52282.0,STARLINK-3783,PAYLOAD,2023-10-14 13:34:18,15.0884665,0.0001674,53.217,76.6837,76.0422,284.0756,0.00022888,3.357e-05,0.0,0 STARLINK-3783,1 52282U 22041X   23287.56549413  .00003357  00000-0  22888-3 0  9996,2 52282  53.2170  76.6837 0001674  76.0422 284.0756 15.08846650 82088,6917.86,95.437,540.883,538.567,0.0
52282.0,STARLINK-3783,PAYLOAD,2023-10-14 15:09:41,15.08847433,0.0001799,53.2181,76.3877,80.506,279.6135,0.00017939,2.569e-05,0.0,0 STARLINK-3783,1 52282U 22041X   23287.63173356  .00002569  00000-0  17939-3 0  9998,2 52282  53.2181  76.3877 0001799  80.5060 279.6135 15.08847433 82099,6917.858,95.437,540.967,538.478,0.0
52282.0,STARLINK-3783,PAYLOAD,2023-10-15 10:14:19,15.0884068,0.0001629,53.2176,72.8179,76.4507,283.6666,0.00011524,1.547e-05,0.0,0 STARLINK-3783,1 52282U 22041X   23288.42661619  .00001547  00000-0  11524-3 0  9999,2 52282  53.2176  72.8179 0001629  76.4507 283.6666 15.08840680 83431,6917.878,95.438,540.87,538.616,0.0
52282.0,STARLINK-3783,PAYLOAD,2023-10-15 13:25:06,15.08834566,0.00016,53.2166,72.2251,73.1564,286.9603,1.5768e-05,-3.7e-07,0.0,0 STARLINK-3783,1 52282U 22041X   23288.55910013 -.00000037  00000-0  15768-4 0  9997,2 52282  53.2166  72.2251 0001600  73.1564 286.9603 15.08834566 82231,6917.897,95.438,540.869,538.655,0.0
52282.0,STARLINK-3783,PAYLOAD,2023-10-15 16:35:52,15.08835819,0.0001514,53.2166,71.628,83.8053,276.3111,3.6475e-05,2.93e-06,0.0,0 STARLINK-3783,1 52282U 22041X   23288.69157920  .00000293  00000-0  36475-4 0  9993,2 52282  53.2166  71.6280 0001514  83.8053 276.3111 15.08835819 82252,6917.893,95.438,540.806,538.711,0.0
52282.0,STARLINK-3783,PAYLOAD,2023-10-16 02:08:11,15.08836488,0.000154,53.2161,69.8457,72.3137,287.8023,3.5431e-05,2.76e-06,0.0,0 STARLINK-3783,1 52282U 22041X   23289.08902038  .00000276  00000-0  35431-4 0  9997,2 52282  53.2161  69.8457 0001540  72.3137 287.8023 15.08836488 83531,6917.891,95.438,540.821,538.691,0.0
